NORAD_CAT_ID,OBJECT_NAME,OBJECT_TYPE,EPOCH,MEAN_MOTION,ECCENTRICITY,INCLINATION,RA_OF_ASC_NODE,ARG_OF_PERICENTER,MEAN_ANOMALY,BSTAR,MEAN_MOTION_DOT,MEAN_MOTION_DDOT,TLE_LINE0,TLE_LINE1,TLE_LINE2,SEMIMAJOR_AXIS,PERIOD,APOGEE,PERIGEE,DECAYED
53831.0,STARLINK-4649,PAYLOAD,2024-03-07 11:39:01,15.08851235,0.000141,53.2192,351.0982,89.0432,271.0722,0.00032868,4.948e-05,0.0,0 STARLINK-4649,1 53831U 22114P   24067.48543078  .00004948  00000-0  32868-3 0  9993,2 53831  53.2192 351.0982 0001410  89.0432 271.0722 15.08851235 82294,6917.846,95.437,540.686,538.736,0.0
53831.0,STARLINK-4649,PAYLOAD,2024-03-08 03:32:53,15.08835454,0.000193,53.2193,348.1215,87.0982,273.0231,0.00011226,1.499e-05,0.0,0 STARLINK-4649,1 53831U 22114P   24068.14784267  .00001499  00000-0  11226-3 0  9997,2 53831  53.2193 348.1215 0001930  87.0982 273.0231 15.08835454 81859,6917.894,95.438,541.094,538.424,0.0
53831.0,STARLINK-4649,PAYLOAD,2024-03-08 11:29:48,15.08851814,0.0001364,53.2196,346.6359,91.0093,269.1056,0.0003054,4.577e-05,0.0,0 STARLINK-4649,1 53831U 22114P   24068.47903198  .00004577  00000-0  30540-3 0  9999,2 53831  53.2196 346.6359 0001364  91.0093 269.1056 15.08851814 81908,6917.844,95.437,540.653,538.766,0.0
53831.0,STARLINK-4649,PAYLOAD,2024-03-09 03:23:40,15.08840492,0.0001678,53.2196,343.6633,77.409,282.709,3.7384e-05,3.07e-06,0.0,0 STARLINK-4649,1 53831U 22114P   24069.14143939  .00000307  00000-0  37384-4 0  9994,2 53831  53.2196 343.6633 0001678  77.4090 282.7090 15.08840492 82004,6917.879,95.438,540.905,538.583,0.0
53831.0,STARLINK-4649,PAYLOAD,2024-03-09 11:20:35,15.08852225,0.0001636,53.2194,342.1783,84.2801,275.8378,0.00028281,4.217e-05,0.0,0 STARLINK-4649,1 53831U 22114P   24069.47263549  .00004217  00000-0  28281-3 0  9999,2 53831  53.2194 342.1783 0001636  84.2801 275.8378 15.08852225 82056,6917.843,95.437,540.84,538.576,0.0
53831.0,STARLINK-4649,PAYLOAD,2024-03-10 03:14:27,15.08843659,0.0001669,53.219,339.2013,87.4325,272.6858,0.00010551,1.392e-05,0.0,0 STARLINK-4649,1 53831U 22114P   24070.13503705  .00001392  00000-0  10551-3 0  9997,2 53831  53.2190 339.2013 0001669  87.4325 272.6858 15.08843659 82157,6917.869,95.437,540.889,538.58,0.0
53831.0,STARLINK-4649,PAYLOAD,2024-03-10 11:11:22,15.08854594,0.0001608,53.2196,337.7137,89.8605,270.2572,0.00021825,3.188e-05,0.0,0 STARLINK-4649,1 53831U 22114P   24070.46623035  .00003188  00000-0  21825-3 0  9993,2 53831  53.2196 337.7137 0001608  89.8605 270.2572 15.08854594 82206,6917.836,95.437,540.813,538.588,0.0
53831.0,STARLINK-4649,PAYLOAD,2024-03-10 22:19:05,15.08835473,0.0001899,53.2212,335.6315,88.8969,271.2241,5.2538e-05,5.48e-06,0.0,0 STARLINK-4649,1 53831U 22114P   24070.92992169  .00000548  00000-0  52538-4 0  9994,2 53831  53.2212 335.6315 0001899  88.8969 271.2241 15.08835473 82810,6917.894,95.438,541.073,538.446,0.0
53831.0,STARLINK-4649,PAYLOAD,2024-03-11 03:05:14,15.08838485,0.0001466,53.2177,334.7399,96.1808,263.9352,-4.3341e-06,-3.57e-06,0.0,0 STARLINK-4649,1 53831U 22114P   24071.12863775 -.00000357  00000-0 -43341-5 0  9990,2 53831  53.2177 334.7399 0001466  96.1808 263.9352 15.08838485 82307,6917.885,95.438,540.764,538.736,0.0
53831.0,STARLINK-4649,PAYLOAD,2024-03-11 11:02:09,15.08845784,0.0001476,53.2183,333.2546,93.799,266.3171,0.00016155,2.284e-05,0.0,0 STARLINK-4649,1 53831U 22114P   24071.45983551  .00002284  00000-0  16155-3 0  9991,2 53831  53.2183 333.2546 0001476  93.7990 266.3171 15.08845784 82898,6917.863,95.437,540.749,538.707,0.0
53831.0,STARLINK-4649,PAYLOAD,2024-03-12 02:56:01,15.08842123,0.0001689,53.2208,330.2811,103.9693,256.1487,8.8218e-05,1.116e-05,0.0,0 STARLINK-4649,1 53831U 22114P   24072.12223930  .00001116  00000-0  88218-4 0  9997,2 53831  53.2208 330.2811 0001689 103.9693 256.1487 15.08842123 82990,6917.874,95.437,540.907,538.57,0.0
53831.0,STARLINK-4649,PAYLOAD,2024-03-13 02:46:48,15.08844311,0.0001752,53.2208,325.8201,106.068,254.0505,0.00021658,3.161e-05,0.0,0 STARLINK-4649,1 53831U 22114P   24073.11583980  .00003161  00000-0  21658-3 0  9997,2 53831  53.2208 325.8201 0001752 106.0680 254.0505 15.08844311 82601,6917.867,95.437,540.944,538.52,0.0
53831.0,STARLINK-4649,PAYLOAD,2024-03-13 21:51:26,15.08842528,0.000144,53.218,322.2504,115.0434,245.0708,0.00016141,2.282e-05,0.0,0 STARLINK-4649,1 53831U 22114P   24073.91071896  .00002282  00000-0  16141-3 0  9997,2 53831  53.2180 322.2504 0001440 115.0434 245.0708 15.08842528 83264,6917.873,95.437,540.734,538.741,0.0
53831.0,STARLINK-4649,PAYLOAD,2024-03-14 02:37:35,15.0884212,0.0001356,53.2177,321.3589,101.1615,258.953,0.00010914,1.45e-05,0.0,0 STARLINK-4649,1 53831U 22114P   24074.10943948  .00001450  00000-0  10914-3 0  9993,2 53831  53.2177 321.3589 0001356 101.1615 258.9530 15.08842120 82753,6917.874,95.437,540.677,538.801,0.0
53831.0,STARLINK-4649,PAYLOAD,2024-03-14 20:06:50,15.08827772,0.0001244,53.2171,318.0865,77.0068,283.1063,-8.6338e-05,-1.661e-05,0.0,0 STARLINK-4649,1 53831U 22114P   24074.83808690 -.00001661  00000-0 -86338-4 0  9997,2 53831  53.2171 318.0865 0001244  77.0068 283.1063 15.08827772 82865,6917.918,95.438,540.643,538.922,0.0
53831.0,STARLINK-4649,PAYLOAD,2024-03-14 21:42:13,15.08829333,0.0001266,53.2167,317.7896,81.9572,278.1564,-6.6992e-05,-1.354e-05,0.0,0 STARLINK-4649,1 53831U 22114P   24074.90432628 -.00001354  00000-0 -66992-4 0  9992,2 53831  53.2167 317.7896 0001266  81.9572 278.1564 15.08829333 83415,6917.913,95.438,540.654,538.902,0.0
53831.0,STARLINK-4649,PAYLOAD,2024-03-15 15:11:28,15.08839154,0.0001354,53.2173,314.5202,85.4733,274.6414,8.7069e-05,1.098e-05,0.0,0 STARLINK-4649,1 53831U 22114P   24075.63296401  .00001098  00000-0  87069-4 0  9991,2 53831  53.2173 314.5202 0001354  85.4733 274.6414 15.08839154 82982,6917.883,95.438,540.685,538.811,0.0
53831.0,STARLINK-4649,PAYLOAD,2024-03-16 00:43:46,15.08841275,0.0001294,53.2164,312.7361,81.2534,278.8605,0.00015884,2.241e-05,0.0,0 STARLINK-4649,1 53831U 22114P   24076.03040358  .00002241  00000-0  15884-3 0  9990,2 53831  53.2164 312.7361 0001294  81.2534 278.8605 15.08841275 83586,6917.876,95.437,540.637,538.846,0.0
53831.0,STARLINK-4649,PAYLOAD,2024-03-16 21:23:47,15.08837627,0.0001229,53.2161,308.8718,93.163,266.9502,0.00010669,1.41e-05,0.0,0 STARLINK-4649,1 53831U 22114P   24076.89152716  .00001410  00000-0  10669-3 0  9999,2 53831  53.2161 308.8718 0001229  93.1630 266.9502 15.08837627 83177,6917.888,95.438,540.603,538.902,0.0
53831.0,STARLINK-4649,PAYLOAD,2024-03-17 14:53:02,15.08840794,0.0001387,53.2167,305.6018,84.0435,276.0715,0.00015442,2.171e-05,0.0,0 STARLINK-4649,1 53831U 22114P   24077.62016822  .00002171  00000-0  15442-3 0  9997,2 53831  53.2167 305.6018 0001387  84.0435 276.0715 15.08840794 83827,6917.878,95.438,540.702,538.783,0.0
53831.0,STARLINK-4649,PAYLOAD,2024-03-17 21:14:35,15.08839886,0.0001349,53.2167,304.4119,86.2544,273.8602,0.0001237,1.681e-05,0.0,0 STARLINK-4649,1 53831U 22114P   24077.88512923  .00001681  00000-0  12370-3 0  9990,2 53831  53.2167 304.4119 0001349  86.2544 273.8602 15.08839886 83863,6917.881,95.438,540.679,538.813,0.0
53831.0,STARLINK-4649,PAYLOAD,2024-03-17 22:49:58,15.08840777,0.0001326,53.2167,304.1146,85.8882,274.2262,0.00013238,1.82e-05,0.0,0 STARLINK-4649,1 53831U 22114P   24077.95136882  .00001820  00000-0  13238-3 0  9993,2 53831  53.2167 304.1146 0001326  85.8882 274.2262 15.08840777 83335,6917.878,95.438,540.66,538.826,0.0
53831.0,STARLINK-4649,PAYLOAD,2024-03-18 21:05:21,15.08845811,0.0001278,53.2166,299.951,87.9665,272.1473,0.00017515,2.501e-05,0.0,0 STARLINK-4649,1 53831U 22114P   24078.87872660  .00002501  00000-0  17515-3 0  9995,2 53831  53.2166 299.9510 0001278  87.9665 272.1473 15.08845811 84019,6917.863,95.437,540.612,538.844,0.0
53831.0,STARLINK-4649,PAYLOAD,2024-03-19 00:16:08,15.08848091,0.0001239,53.2164,299.3554,92.5446,267.5688,0.00019989,2.895e-05,0.0,0 STARLINK-4649,1 53831U 22114P   24079.01120478  .00002895  00000-0  19989-3 0  9998,2 53831  53.2164 299.3554 0001239  92.5446 267.5688 15.08848091 83495,6917.856,95.437,540.578,538.864,0.0
53831.0,STARLINK-4649,PAYLOAD,2024-03-20 00:06:54,15.08851138,0.0001198,53.216,294.8943,88.7103,271.4026,0.00018723,2.694e-05,0.0,0 STARLINK-4649,1 53831U 22114P   24080.00480047  .00002694  00000-0  18723-3 0  9992,2 53831  53.2160 294.8943 0001198  88.7103 271.4026 15.08851138 84187,6917.846,95.437,540.54,538.883,0.0
53831.0,STARLINK-4649,PAYLOAD,2024-03-20 20:46:56,15.08838009,0.0001254,53.2159,291.0217,120.9089,239.2026,6.8279e-05,7.99e-06,0.0,0 STARLINK-4649,1 53831U 22114P   24080.86592597  .00000799  00000-0  68279-4 0  9996,2 53831  53.2159 291.0217 0001254 120.9089 239.2026 15.08838009 83771,6917.886,95.438,540.619,538.884,0.0
53831.0,STARLINK-4649,PAYLOAD,2024-03-21 12:40:47,15.0884128,0.0001143,53.2156,288.0534,108.1497,251.9619,5.459e-05,5.81e-06,0.0,0 STARLINK-4649,1 53831U 22114P   24081.52832518  .00000581  00000-0  54590-4 0  9990,2 53831  53.2156 288.0534 0001143 108.1497 251.9619 15.08841280 84410,6917.876,95.437,540.532,538.951,0.0
53831.0,STARLINK-4649,PAYLOAD,2024-03-21 20:37:43,15.08841952,0.0001095,53.2158,286.5671,101.3678,258.7438,0.0001051,1.385e-05,0.0,0 STARLINK-4649,1 53831U 22114P   24081.85952560  .00001385  00000-0  10510-3 0  9992,2 53831  53.2158 286.5671 0001095 101.3678 258.7438 15.08841952 84464,6917.874,95.437,540.497,538.982,0.0
53831.0,STARLINK-4649,PAYLOAD,2024-03-22 12:31:34,15.08836817,0.0001089,53.2162,283.5934,109.5351,250.5759,0.00013885,1.922e-05,0.0,0 STARLINK-4649,1 53831U 22114P   24082.52192912  .00001922  00000-0  13885-3 0  9999,2 53831  53.2162 283.5934 0001089 109.5351 250.5759 15.08836817 84021,6917.89,95.438,540.508,539.002,0.0
53831.0,STARLINK-4649,PAYLOAD,2024-03-22 18:53:07,15.0883968,0.0001014,53.2157,282.4045,97.0772,263.0335,9.7254e-05,1.26e-05,0.0,0 STARLINK-4649,1 53831U 22114P   24082.78688803  .00001260  00000-0  97254-4 0  9994,2 53831  53.2157 282.4045 0001014  97.0772 263.0335 15.08839680 84606,6917.881,95.438,540.448,539.045,0.0
